HYLAS 2                 
1 38741U 12043B   26155.12285499 -.00000246  00000+0  00000+0 0  9993
2 38741   2.3934  81.2253 0003066  14.6266 128.3750  1.00269582 50641
INTELSAT 21 (IS-21)     
1 38749U 12045A   26155.05452509 -.00000273  00000+0  00000+0 0  9993
2 38749   0.0368  77.8866 0002157   7.0429 129.2018  1.00270324 50398
ASTRA 2F                
1 38778U 12051A   26155.14285454  .00000162  00000+0  00000+0 0  9991
2 38778   0.0541 258.2551 0000762 262.6222 171.3216  1.00271804 41009
GSAT-10                 
1 38779U 12051B   26155.15377458 -.00000153  00000+0  00000+0 0  9990
2 38779   0.0240 261.8958 0008088 185.8329 303.2613  1.00272495 49967
INTELSAT 23 (IS-23)     
1 38867U 12057A   26155.12677619 -.00000273  00000+0  00000+0 0  9996
2 38867   0.0141 303.1614 0000254 182.9975 119.0589  1.00268539 49820
BEIDOU-2 G6             
1 38953U 12059A   26154.93254480 -.00000163  00000+0  00000+0 0  9997
2 38953   4.3879  73.6667 0010233 326.8485 271.5225  1.00268641 49770
LUCH-5B                 
1 38977U 12061A   26154.99151385 -.00000129  00000+0  00000+0 0  9994
2 38977  10.4533  50.0115 0001520 139.2644  43.7879  1.00274489 49478
YAMAL 300K              
1 38978U 12061B   26155.17353468  .00000084  00000+0  00000+0 0  9991
2 38978   0.0166 285.5808 0001028 297.3976 275.0689  1.00276417 49503
STAR ONE C3             
1 38991U 12062A   26155.17683514 -.00000237  00000+0  00000+0 0  9996
2 38991   0.0186 328.6893 0002674 118.9681 153.6466  1.00271390 49635
EUTELSAT 21B            
1 38992U 12062B   26154.85637910  .00000142  00000+0  00000+0 0  9994
2 38992   0.0668 343.5425 0003037  84.3566 154.3055  1.00268624 49694
ECHOSTAR 16             
1 39008U 12065A   26154.91126270  .00000000  00000+0  00000+0 0  9998
2 39008   0.0146 358.3754 0001798  82.4891  78.0635  1.00269674 49518
ZHONGXING-12            
1 39017U 12067A   26155.20113999 -.00000195  00000+0  00000+0 0  9993
2 39017   0.0481  99.9140 0003365 330.2175 342.4400  1.00272223 49374
EUTELSAT 70B            
1 39020U 12069A   26155.15117457 -.00000031  00000+0  00000+0 0  9995
2 39020   0.0621 346.3735 0003952  79.9350 311.2052  1.00271289 49375
YAMAL 402               
1 39022U 12070A   26155.14814123  .00000098  00000+0  00000+0 0  9994
2 39022   1.2315  84.3233 0004070 346.4614 290.0429  1.00272535 49264
SKYNET 5D               
1 39034U 12075A   26155.14779455  .00000111  00000+0  00000+0 0  9996
2 39034   0.0662 353.1242 0003979  87.6911 277.7634  1.00271724 49020
MEXSAT 3                
1 39035U 12075B   26155.15044869 -.00000014  00000+0  00000+0 0  9995
2 39035   0.0146  15.6678 0001084  52.3581 123.9405  1.00276453  6922
TDRS 11                 
1 39070U 13004A   26154.88890258  .00000092  00000+0  00000+0 0  9992
2 39070   3.5018  31.0421 0004997  20.3235 346.7392  1.00278084 46568
AMAZONAS 3              
1 39078U 13006A   26155.05391844 -.00000270  00000+0  00000+0 0  9998
2 39078   0.0337 193.1112 0002218 269.2021 108.6188  1.00272078 44787
AZERSPACE 1             
1 39079U 13006B   26155.14640788  .00000145  00000+0  00000+0 0  9993
2 39079   0.0239  55.7140 0001483  39.4564 256.1239  1.00271121 48671
SBIRS GEO-2 (USA 241)   
1 39120U 13011A   26155.12746954 -.00000276  00000+0  00000+0 0  9992
2 39120   4.4626  52.5026 0002084  15.3013 180.8564  1.00270678 48405
EUTELSAT 117 WEST A     
1 39122U 13012A   26155.18308764 -.00000001  00000+0  00000+0 0  9990
2 39122   0.0348  51.6024 0002986  24.2761 125.8619  1.00271878 48300
ANIK G1                 
1 39127U 13014A   26155.18794779 -.00000062  00000+0  00000+0 0  9999
2 39127   0.0374  79.1120 0001912 347.0690 146.8118  1.00272235 48126
ZHONGXING-11            
1 39157U 13020A   26155.12663947 -.00000278  00000+0  00000+0 0  9994
2 39157   0.0211  13.8748 0002522  59.6348 322.5563  1.00270445 47761
EUTELSAT 7B             
1 39163U 13022A   26155.13869450  .00000060  00000+0  00000+0 0  9999
2 39163   0.0665   2.0918 0005310  33.2331 274.2030  1.00270586 47812
WGS F5 (USA 243)        
1 39168U 13024A   26155.12686286 -.00000272  00000+0  00000+0 0  9995
2 39168   0.0188 315.0863 0000360 117.1040 173.5587  1.00272092 47049
SES-6                   
1 39172U 13026A   26155.12928955 -.00000249  00000+0  00000+0 0  9998
2 39172   0.0168 354.8526 0002885  86.0962 177.6860  1.00271108 47596
IRNSS-1A                
1 39199U 13034A   26142.85947303  .00000059  00000+0  00000+0 0  9998
2 39199  35.6649  64.2334 0016618 185.3754 355.4646  1.00280263 47111
MUOS-2                  
1 39206U 13036A   26154.88621590 -.00000003  00000+0  00000+0 0  9992
2 39206   4.9697  45.5147 0050542 178.2115 159.5964  1.00270906 47054
ALPHASAT                
1 39215U 13038A   26155.14224786  .00000145  00000+0  00000+0 0  9996
2 39215   2.9975   1.4014 0002114  70.2931 256.9818  1.00269769 43886
INSAT-3D                
1 39216U 13038B   26154.94906001 -.00000327  00000+0  00000+0 0  9994
2 39216   1.8918  82.7080 0000935 346.3381 294.5293  1.00269597 46946
WGS F6 (USA 244)        
1 39222U 13041A   26155.11053678  .00000101  00000+0  00000+0 0  9997
2 39222   0.0176 349.8964 0000291  84.1184  83.1763  1.00272253 45936
ES'HAIL 1               
1 39233U 13044A   26155.14233454  .00000155  00000+0  00000+0 0  9996
2 39233   0.0479 351.1301 0002576  76.8716 261.3273  1.00269425 46497
