OBJECT_NAME,OBJECT_ID,EPOCH,MEAN_MOTION,ECCENTRICITY,INCLINATION,RA_OF_ASC_NODE,ARG_OF_PERICENTER,MEAN_ANOMALY,EPHEMERIS_TYPE,CLASSIFICATION_TYPE,NORAD_CAT_ID,ELEMENT_SET_NO,REV_AT_EPOCH,BSTAR,MEAN_MOTION_DOT,MEAN_MOTION_DDOT
HYLAS 2,2012-043B,2026-06-04T02:56:54.671136,1.00269582,.0003066,2.3934,81.2253,14.6266,128.3750,0,U,38741,999,5064,0,-.246E-5,0
INTELSAT 21 (IS-21),2012-045A,2026-06-04T01:18:30.967776,1.00270324,.0002157,0.0368,77.8866,7.0429,129.2018,0,U,38749,999,5039,0,-.273E-5,0
ASTRA 2F,2012-051A,2026-06-04T03:25:42.632256,1.00271804,.0000762,0.0541,258.2551,262.6222,171.3216,0,U,38778,999,4100,0,.162E-5,0
GSAT-10,2012-051B,2026-06-04T03:41:26.123712,1.00272495,.0008088,0.0240,261.8958,185.8329,303.2613,0,U,38779,999,4996,0,-.153E-5,0
INTELSAT 23 (IS-23),2012-057A,2026-06-04T03:02:33.462816,1.00268539,.0000254,0.0141,303.1614,182.9975,119.0589,0,U,38867,999,4982,0,-.273E-5,0
BEIDOU-2 G6,2012-059A,2026-06-03T22:22:51.870720,1.00268641,.0010233,4.3879,73.6667,326.8485,271.5225,0,U,38953,999,4977,0,-.163E-5,0
LUCH-5B,2012-061A,2026-06-03T23:47:46.796640,1.00274489,.000152,10.4533,50.0115,139.2644,43.7879,0,U,38977,999,4947,0,-.129E-5,0
YAMAL 300K,2012-061B,2026-06-04T04:09:53.396352,1.00276417,.0001028,0.0166,285.5808,297.3976,275.0689,0,U,38978,999,4950,0,.84E-6,0
STAR ONE C3,2012-062A,2026-06-04T04:14:38.556096,1.00271390,.0002674,0.0186,328.6893,118.9681,153.6466,0,U,38991,999,4963,0,-.237E-5,0
EUTELSAT 21B,2012-062B,2026-06-03T20:33:11.154240,1.00268624,.0003037,0.0668,343.5425,84.3566,154.3055,0,U,38992,999,4969,0,.142E-5,0
ECHOSTAR 16,2012-065A,2026-06-03T21:52:13.097280,1.00269674,.0001798,0.0146,358.3754,82.4891,78.0635,0,U,39008,999,4951,0,0,0
ZHONGXING-12,2012-067A,2026-06-04T04:49:38.495136,1.00272223,.0003365,0.0481,99.9140,330.2175,342.4400,0,U,39017,999,4937,0,-.195E-5,0
EUTELSAT 70B,2012-069A,2026-06-04T03:37:41.482848,1.00271289,.0003952,0.0621,346.3735,79.9350,311.2052,0,U,39020,999,4937,0,-.31E-6,0
YAMAL 402,2012-070A,2026-06-04T03:33:19.402272,1.00272535,.000407,1.2315,84.3233,346.4614,290.0429,0,U,39022,999,4926,0,.98E-6,0
SKYNET 5D,2012-075A,2026-06-04T03:32:49.449120,1.00271724,.0003979,0.0662,353.1242,87.6911,277.7634,0,U,39034,999,4902,0,.111E-5,0
MEXSAT 3,2012-075B,2026-06-04T03:36:38.766816,1.00276453,.0001084,0.0146,15.6678,52.3581,123.9405,0,U,39035,999,692,0,-.14E-6,0
TDRS 11,2013-004A,2026-06-03T21:20:01.182912,1.00278084,.0004997,3.5018,31.0421,20.3235,346.7392,0,U,39070,999,4656,0,.92E-6,0
AMAZONAS 3,2013-006A,2026-06-04T01:17:38.553216,1.00272078,.0002218,0.0337,193.1112,269.2021,108.6188,0,U,39078,999,4478,0,-.27E-5,0
AZERSPACE 1,2013-006B,2026-06-04T03:30:49.640832,1.00271121,.0001483,0.0239,55.7140,39.4564,256.1239,0,U,39079,999,4867,0,.145E-5,0
SBIRS GEO-2 (USA 241),2013-011A,2026-06-04T03:03:33.368256,1.00270678,.0002084,4.4626,52.5026,15.3013,180.8564,0,U,39120,999,4840,0,-.276E-5,0
EUTELSAT 117 WEST A,2013-012A,2026-06-04T04:23:38.772096,1.00271878,.0002986,0.0348,51.6024,24.2761,125.8619,0,U,39122,999,4830,0,-.1E-7,0
ANIK G1,2013-014A,2026-06-04T04:30:38.689056,1.00272235,.0001912,0.0374,79.1120,347.0690,146.8118,0,U,39127,999,4812,0,-.62E-6,0
ZHONGXING-11,2013-020A,2026-06-04T03:02:21.650208,1.00270445,.0002522,0.0211,13.8748,59.6348,322.5563,0,U,39157,999,4776,0,-.278E-5,0
EUTELSAT 7B,2013-022A,2026-06-04T03:19:43.204800,1.00270586,.000531,0.0665,2.0918,33.2331,274.2030,0,U,39163,999,4781,0,.6E-6,0
WGS F5 (USA 243),2013-024A,2026-06-04T03:02:40.951104,1.00272092,.000036,0.0188,315.0863,117.1040,173.5587,0,U,39168,999,4704,0,-.272E-5,0
SES-6,2013-026A,2026-06-04T03:06:10.617120,1.00271108,.0002885,0.0168,354.8526,86.0962,177.6860,0,U,39172,999,4759,0,-.249E-5,0
IRNSS-1A,2013-034A,2026-05-22T20:37:38.469792,1.00280263,.00166187,35.6649,64.2334,185.3754,355.4646,0,U,39199,999,4711,0,.59E-6,0
MUOS-2,2013-036A,2026-06-03T21:16:09.053760,1.00270906,.0050542,4.9697,45.5147,178.2115,159.5964,0,U,39206,999,4705,0,-.3E-7,0
ALPHASAT,2013-038A,2026-06-04T03:24:50.215104,1.00269769,.0002114,2.9975,1.4014,70.2931,256.9818,0,U,39215,999,4388,0,.145E-5,0
INSAT-3D,2013-038B,2026-06-03T22:46:38.784864,1.00269597,.0000935,1.8918,82.7080,346.3381,294.5293,0,U,39216,999,4694,0,-.327E-5,0
WGS F6 (USA 244),2013-041A,2026-06-04T02:39:10.377792,1.00272253,.0000291,0.0176,349.8964,84.1184,83.1763,0,U,39222,999,4593,0,.101E-5,0
ES'HAIL 1,2013-044A,2026-06-04T03:24:57.704256,1.00269425,.0002576,0.0479,351.1301,76.8716,261.3273,0,U,39233,999,4649,0,.155E-5,0
